{
  "type": "FeatureCollection",
  "features": [
    {
      "type": "Feature",
      "properties": {
        "norad_id": 35744,
        "name": "IRIDIUM 33 DEB",
        "group": "iridium-33-debris",
        "lat": -55.78815329335725,
        "lon": -45.04569955278134,
        "alt_km": 677.9482740958556,
        "timestamp": "2025-12-23T22:42:33.371091+00:00",
        "meta_object_name": "IRIDIUM 33 DEB",
        "meta_object_id": "1997-051RX",
        "meta_epoch": "2025-12-23T03:22:28.782624",
        "meta_mean_motion": 14.71122887,
        "meta_eccentricity": 0.00216776,
        "meta_inclination": 86.3298,
        "meta_ra_of_asc_node": 320.7354,
        "meta_arg_of_pericenter": 155.7913,
        "meta_mean_anomaly": 204.4327,
        "meta_ephemeris_type": 0,
        "meta_classification_type": "U",
        "meta_norad_cat_id": 35744,
        "meta_element_set_no": 999,
        "meta_rev_at_epoch": 87484,
        "meta_bstar": 0.0012113531,
        "meta_mean_motion_dot": 7.502e-05,
        "meta_mean_motion_ddot": 0,
        "tle_line1": "1 35744U 97051RX  25357.14061091  .00007502  00000+0  12114-2 0  9993",
        "tle_line2": "2 35744  86.3298 320.7354 0021677 155.7913 204.4327 14.71122887874843"
      },
      "geometry": {
        "type": "Point",
        "coordinates": [
          -45.04569955278134,
          -55.78815329335725
        ]
      }
    },
    {
      "type": "Feature",
      "properties": {
        "norad_id": 35797,
        "name": "IRIDIUM 33 DEB",
        "group": "iridium-33-debris",
        "lat": 30.99256631556218,
        "lon": 142.61657437215914,
        "alt_km": 609.8666833347606,
        "timestamp": "2025-12-23T22:42:33.371101+00:00",
        "meta_object_name": "IRIDIUM 33 DEB",
        "meta_object_id": "1997-051SF",
        "meta_epoch": "2025-12-23T04:13:41.927808",
        "meta_mean_motion": 14.83019917,
        "meta_eccentricity": 0.00147795,
        "meta_inclination": 86.3362,
        "meta_ra_of_asc_node": 325.1762,
        "meta_arg_of_pericenter": 114.8894,
        "meta_mean_anomaly": 245.3866,
        "meta_ephemeris_type": 0,
        "meta_classification_type": "U",
        "meta_norad_cat_id": 35797,
        "meta_element_set_no": 999,
        "meta_rev_at_epoch": 87495,
        "meta_bstar": 0.0018258905,
        "meta_mean_motion_dot": 0.0001491,
        "meta_mean_motion_ddot": 0,
        "tle_line1": "1 35797U 97051SF  25357.17617972  .00014910  00000+0  18259-2 0  9996",
        "tle_line2": "2 35797  86.3362 325.1762 0014779 114.8894 245.3866 14.83019917874950"
      },
      "geometry": {
        "type": "Point",
        "coordinates": [
          142.61657437215914,
          30.99256631556218
        ]
      }
    },
    {
      "type": "Feature",
      "properties": {
        "norad_id": 35806,
        "name": "IRIDIUM 33 DEB",
        "group": "iridium-33-debris",
        "lat": 32.52552921289588,
        "lon": -166.64427387761782,
        "alt_km": 702.7643579804353,
        "timestamp": "2025-12-23T22:42:33.371112+00:00",
        "meta_object_name": "IRIDIUM 33 DEB",
        "meta_object_id": "1997-051SQ",
        "meta_epoch": "2025-12-22T08:08:16.057536",
        "meta_mean_motion": 14.57429355,
        "meta_eccentricity": 0.00153731,
        "meta_inclination": 86.3431,
        "meta_ra_of_asc_node": 16.4008,
        "meta_arg_of_pericenter": 45.7308,
        "meta_mean_anomaly": 314.5159,
        "meta_ephemeris_type": 0,
        "meta_classification_type": "U",
        "meta_norad_cat_id": 35806,
        "meta_element_set_no": 999,
        "meta_rev_at_epoch": 86464,
        "meta_bstar": 0.0011754226,
        "meta_mean_motion_dot": 5.361e-05,
        "meta_mean_motion_ddot": 0,
        "tle_line1": "1 35806U 97051SQ  25356.33907474  .00005361  00000+0  11754-2 0  9996",
        "tle_line2": "2 35806  86.3431  16.4008 0015373  45.7308 314.5159 14.57429355864645"
      },
      "geometry": {
        "type": "Point",
        "coordinates": [
          -166.64427387761782,
          32.52552921289588
        ]
      }
    },
    {
      "type": "Feature",
      "properties": {
        "norad_id": 35809,
        "name": "IRIDIUM 33 DEB",
        "group": "iridium-33-debris",
        "lat": 6.400714867681208,
        "lon": 149.83104614491563,
        "alt_km": 637.9280599786216,
        "timestamp": "2025-12-23T22:42:33.371123+00:00",
        "meta_object_name": "IRIDIUM 33 DEB",
        "meta_object_id": "1997-051ST",
        "meta_epoch": "2025-12-21T16:13:39.380736",
        "meta_mean_motion": 14.75870585,
        "meta_eccentricity": 0.00102664,
        "meta_inclination": 86.3279,
        "meta_ra_of_asc_node": 331.2775,
        "meta_arg_of_pericenter": 205.8578,
        "meta_mean_anomaly": 154.2129,
        "meta_ephemeris_type": 0,
        "meta_classification_type": "U",
        "meta_norad_cat_id": 35809,
        "meta_element_set_no": 999,
        "meta_rev_at_epoch": 86939,
        "meta_bstar": 0.0013721853,
        "meta_mean_motion_dot": 9.452e-05,
        "meta_mean_motion_ddot": 0,
        "tle_line1": "1 35809U 97051ST  25355.67615024  .00009452  00000+0  13722-2 0  9994",
        "tle_line2": "2 35809  86.3279 331.2775 0010266 205.8578 154.2129 14.75870585869399"
      },
      "geometry": {
        "type": "Point",
        "coordinates": [
          149.83104614491563,
          6.400714867681208
        ]
      }
    },
    {
      "type": "Feature",
      "properties": {
        "norad_id": 35846,
        "name": "IRIDIUM 33 DEB",
        "group": "iridium-33-debris",
        "lat": 79.24573307647678,
        "lon": 73.56120834240906,
        "alt_km": 732.6681123595936,
        "timestamp": "2025-12-23T22:42:33.371133+00:00",
        "meta_object_name": "IRIDIUM 33 DEB",
        "meta_object_id": "1997-051SW",
        "meta_epoch": "2025-12-20T14:27:58.085568",
        "meta_mean_motion": 14.43184351,
        "meta_eccentricity": 0.00195294,
        "meta_inclination": 86.3741,
        "meta_ra_of_asc_node": 55.4852,
        "meta_arg_of_pericenter": 145.7638,
        "meta_mean_anomaly": 214.4826,
        "meta_ephemeris_type": 0,
        "meta_classification_type": "U",
        "meta_norad_cat_id": 35846,
        "meta_element_set_no": 999,
        "meta_rev_at_epoch": 71442,
        "meta_bstar": 0.00034498842,
        "meta_mean_motion_dot": 1.181e-05,
        "meta_mean_motion_ddot": 0,
        "tle_line1": "1 35846U 97051SW  25354.60275562  .00001181  00000+0  34499-3 0  9992",
        "tle_line2": "2 35846  86.3741  55.4852 0019529 145.7638 214.4826 14.43184351714425"
      },
      "geometry": {
        "type": "Point",
        "coordinates": [
          73.56120834240906,
          79.24573307647678
        ]
      }
    },
    {
      "type": "Feature",
      "properties": {
        "norad_id": 35848,
        "name": "IRIDIUM 33 DEB",
        "group": "iridium-33-debris",
        "lat": -64.05975991621204,
        "lon": -161.45759359003668,
        "alt_km": 640.8178973180766,
        "timestamp": "2025-12-23T22:42:33.371143+00:00",
        "meta_object_name": "IRIDIUM 33 DEB",
        "meta_object_id": "1997-051SY",
        "meta_epoch": "2025-12-20T18:54:17.008704",
        "meta_mean_motion": 14.78786946,
        "meta_eccentricity": 0.00088391,
        "meta_inclination": 86.3889,
        "meta_ra_of_asc_node": 12.5039,
        "meta_arg_of_pericenter": 160.7491,
        "meta_mean_anomaly": 199.4066,
        "meta_ephemeris_type": 0,
        "meta_classification_type": "U",
        "meta_norad_cat_id": 35848,
        "meta_element_set_no": 999,
        "meta_rev_at_epoch": 66809,
        "meta_bstar": 0.00088484231,
        "meta_mean_motion_dot": 6.531e-05,
        "meta_mean_motion_ddot": 0,
        "tle_line1": "1 35848U 97051SY  25354.78769686  .00006531  00000+0  88484-3 0  9995",
        "tle_line2": "2 35848  86.3889  12.5039 0008839 160.7491 199.4066 14.78786946668092"
      },
      "geometry": {
        "type": "Point",
        "coordinates": [
          -161.45759359003668,
          -64.05975991621204
        ]
      }
    },
    {
      "type": "Feature",
      "properties": {
        "norad_id": 35850,
        "name": "IRIDIUM 33 DEB",
        "group": "iridium-33-debris",
        "lat": -37.32613980579169,
        "lon": 161.93665712658824,
        "alt_km": 636.4484520125434,
        "timestamp": "2025-12-23T22:42:33.371154+00:00",
        "meta_object_name": "IRIDIUM 33 DEB",
        "meta_object_id": "1997-051TA",
        "meta_epoch": "2025-12-22T16:30:11.093760",
        "meta_mean_motion": 14.79024497,
        "meta_eccentricity": 0.00105589,
        "meta_inclination": 86.349,
        "meta_ra_of_asc_node": 339.7186,
        "meta_arg_of_pericenter": 150.1943,
        "meta_mean_anomaly": 209.9881,
        "meta_ephemeris_type": 0,
        "meta_classification_type": "U",
        "meta_norad_cat_id": 35850,
        "meta_element_set_no": 999,
        "meta_rev_at_epoch": 71504,
        "meta_bstar": 0.001690767,
        "meta_mean_motion_dot": 0.0001254,
        "meta_mean_motion_ddot": 0,
        "tle_line1": "1 35850U 97051TA  25356.68762840  .00012540  00000+0  16908-2 0  9992",
        "tle_line2": "2 35850  86.3490 339.7186 0010558 150.1943 209.9881 14.79024497715043"
      },
      "geometry": {
        "type": "Point",
        "coordinates": [
          161.93665712658824,
          -37.32613980579169
        ]
      }
    }
  ]
}